[{"OBJECT_NAME":"KUIPER-00031","OBJECT_ID":"2025-088W","EPOCH":"2026-03-09T08:49:36.222240","MEAN_MOTION":14.83663511,"ECCENTRICITY":0.00020432,"INCLINATION":51.8994,"RA_OF_ASC_NODE":97.1214,"ARG_OF_PERICENTER":139.5452,"MEAN_ANOMALY":220.5664,"EPHEMERIS_TYPE":0,"CLASSIFICATION_TYPE":"U","NORAD_CAT_ID":63744,"ELEMENT_SET_NO":999,"REV_AT_EPOCH":4750,"BSTAR":0.00061482299,"MEAN_MOTION_DOT":4.901e-5,"MEAN_MOTION_DDOT":0},{"OBJECT_NAME":"COSMOS 1275 DEB","OBJECT_ID":"1981-053EX","EPOCH":"2026-03-09T22:38:21.767136","MEAN_MOTION":14.8458836,"ECCENTRICITY":0.00036793,"INCLINATION":82.9128,"RA_OF_ASC_NODE":268.6345,"ARG_OF_PERICENTER":116.2096,"MEAN_ANOMALY":243.9499,"EPHEMERIS_TYPE":0,"CLASSIFICATION_TYPE":"U","NORAD_CAT_ID":13026,"ELEMENT_SET_NO":999,"REV_AT_EPOCH":28085,"BSTAR":0.0034573379,"MEAN_MOTION_DOT":0.00029308,"MEAN_MOTION_DDOT":0}]
